<?xml version="1.0" encoding="UTF-8"?>
<kml xmlns="http://www.opengis.net/kml/2.2">
  <Document>
    <name>环绕全景 · 猎鹰9 / 重型航迹</name>
    <description>8 条片：猎鹰9 三场×陆地/海上 + 重型海上（及可选陆地）。导入 Earth Studio：Overlays → Import KML。做单条片时请用对应编号文件，避免线叠在一起。</description>
    <Style id="pin-start">
      <IconStyle>
        <color>ff34c759</color>
        <scale>1.05</scale>
        <Icon><href>http://maps.google.com/mapfiles/kml/paddle/grn-circle.png</href></Icon>
      </IconStyle>
    </Style>
    <Style id="pin-end">
      <IconStyle>
        <scale>1.05</scale>
        <Icon><href>http://maps.google.com/mapfiles/kml/paddle/wht-circle.png</href></Icon>
      </IconStyle>
    </Style>
    <Folder>
      <name>猎鹰9 · SLC-40 · 陆地回收</name>
      <Placemark>
        <name>发射 · SLC-40</name>
        <styleUrl>#pin-start</styleUrl>
        <Point><coordinates>-80.577370,28.561860,0</coordinates></Point>
      </Placemark>
      <Placemark>
        <name>回收 · LZ-40</name>
        <styleUrl>#pin-end</styleUrl>
        <Point><coordinates>-80.577200,28.561900,0</coordinates></Point>
      </Placemark>
      <Placemark>
        <name>航迹</name>
        <Style>
          <LineStyle><color>ff2d7dff</color><width>6</width></LineStyle>
        </Style>
        <LineString>
          <tessellate>1</tessellate>
          <altitudeMode>clampToGround</altitudeMode>
          <coordinates>
            -80.577370,28.561860,0
            -80.577349,28.561865,0
            -80.577328,28.561870,0
            -80.577306,28.561875,0
            -80.577285,28.561880,0
            -80.577264,28.561885,0
            -80.577243,28.561890,0
            -80.577221,28.561895,0
            -80.577200,28.561900,0
          </coordinates>
        </LineString>
      </Placemark>
    </Folder>
    <Folder>
      <name>猎鹰9 · SLC-40 · 海上回收</name>
      <Placemark>
        <name>发射 · SLC-40</name>
        <styleUrl>#pin-start</styleUrl>
        <Point><coordinates>-80.577370,28.561860,0</coordinates></Point>
      </Placemark>
      <Placemark>
        <name>回收 · ASOG 示意（东约600km）</name>
        <styleUrl>#pin-end</styleUrl>
        <Point><coordinates>-74.450000,28.560000,0</coordinates></Point>
      </Placemark>
      <Placemark>
        <name>航迹</name>
        <Style>
          <LineStyle><color>ffffc14a</color><width>4</width></LineStyle>
        </Style>
        <LineString>
          <tessellate>1</tessellate>
          <altitudeMode>clampToGround</altitudeMode>
          <coordinates>
            -80.577370,28.561860,0
            -80.385962,28.565969,0
            -80.194540,28.569810,0
            -80.003104,28.573382,0
            -79.811656,28.576686,0
            -79.620197,28.579720,0
            -79.428726,28.582486,0
            -79.237246,28.584983,0
            -79.045758,28.587212,0
            -78.854262,28.589171,0
            -78.662759,28.590861,0
            -78.471251,28.592283,0
            -78.279738,28.593435,0
            -78.088221,28.594319,0
            -77.896701,28.594933,0
            -77.705180,28.595278,0
            -77.513658,28.595355,0
            -77.322136,28.595162,0
            -77.130615,28.594700,0
            -76.939097,28.593970,0
            -76.747582,28.592970,0
            -76.556070,28.591701,0
            -76.364564,28.590163,0
            -76.173064,28.588357,0
            -75.981571,28.586281,0
            -75.790087,28.583937,0
            -75.598611,28.581323,0
            -75.407145,28.578441,0
            -75.215690,28.575290,0
            -75.024247,28.571871,0
            -74.832817,28.568182,0
            -74.641401,28.564225,0
            -74.450000,28.560000,0
          </coordinates>
        </LineString>
      </Placemark>
    </Folder>
    <Folder>
      <name>猎鹰9 · LC-39A · 陆地回收</name>
      <Placemark>
        <name>发射 · LC-39A</name>
        <styleUrl>#pin-start</styleUrl>
        <Point><coordinates>-80.604330,28.608390,0</coordinates></Point>
      </Placemark>
      <Placemark>
        <name>回收 · LZ-40</name>
        <styleUrl>#pin-end</styleUrl>
        <Point><coordinates>-80.577200,28.561900,0</coordinates></Point>
      </Placemark>
      <Placemark>
        <name>航迹</name>
        <Style>
          <LineStyle><color>ff2d7dff</color><width>4</width></LineStyle>
        </Style>
        <LineString>
          <tessellate>1</tessellate>
          <altitudeMode>clampToGround</altitudeMode>
          <coordinates>
            -80.604330,28.608390,0
            -80.602634,28.605485,0
            -80.600937,28.602579,0
            -80.599241,28.599674,0
            -80.597545,28.596768,0
            -80.595849,28.593862,0
            -80.594153,28.590957,0
            -80.592458,28.588051,0
            -80.590762,28.585146,0
            -80.589066,28.582240,0
            -80.587371,28.579334,0
            -80.585676,28.576429,0
            -80.583980,28.573523,0
            -80.582285,28.570617,0
            -80.580590,28.567712,0
            -80.578895,28.564806,0
            -80.577200,28.561900,0
          </coordinates>
        </LineString>
      </Placemark>
    </Folder>
    <Folder>
      <name>猎鹰9 · LC-39A · 海上回收</name>
      <Placemark>
        <name>发射 · LC-39A</name>
        <styleUrl>#pin-start</styleUrl>
        <Point><coordinates>-80.604330,28.608390,0</coordinates></Point>
      </Placemark>
      <Placemark>
        <name>回收 · ASOG 示意（东约600km）</name>
        <styleUrl>#pin-end</styleUrl>
        <Point><coordinates>-74.450000,28.560000,0</coordinates></Point>
      </Placemark>
      <Placemark>
        <name>航迹</name>
        <Style>
          <LineStyle><color>ffffc14a</color><width>4</width></LineStyle>
        </Style>
        <LineString>
          <tessellate>1</tessellate>
          <altitudeMode>clampToGround</altitudeMode>
          <coordinates>
            -80.604330,28.608390,0
            -80.411998,28.611086,0
            -80.219657,28.613511,0
            -80.027308,28.615664,0
            -79.834951,28.617546,0
            -79.642588,28.619156,0
            -79.450220,28.620494,0
            -79.257847,28.621561,0
            -79.065470,28.622357,0
            -78.873092,28.622881,0
            -78.680712,28.623133,0
            -78.488331,28.623113,0
            -78.295951,28.622822,0
            -78.103572,28.622259,0
            -77.911196,28.621425,0
            -77.718824,28.620319,0
            -77.526456,28.618942,0
            -77.334094,28.617293,0
            -77.141738,28.615372,0
            -76.949390,28.613180,0
            -76.757050,28.610717,0
            -76.564720,28.607982,0
            -76.372401,28.604975,0
            -76.180093,28.601698,0
            -75.987797,28.598149,0
            -75.795515,28.594329,0
            -75.603247,28.590238,0
            -75.410995,28.585875,0
            -75.218759,28.581242,0
            -75.026541,28.576338,0
            -74.834341,28.571163,0
            -74.642160,28.565717,0
            -74.450000,28.560000,0
          </coordinates>
        </LineString>
      </Placemark>
    </Folder>
    <Folder>
      <name>猎鹰9 · SLC-4E · 陆地回收</name>
      <Placemark>
        <name>发射 · SLC-4E</name>
        <styleUrl>#pin-start</styleUrl>
        <Point><coordinates>-120.610830,34.632090,0</coordinates></Point>
      </Placemark>
      <Placemark>
        <name>回收 · LZ-4</name>
        <styleUrl>#pin-end</styleUrl>
        <Point><coordinates>-120.613000,34.633000,0</coordinates></Point>
      </Placemark>
      <Placemark>
        <name>航迹</name>
        <Style>
          <LineStyle><color>ff2d7dff</color><width>6</width></LineStyle>
        </Style>
        <LineString>
          <tessellate>1</tessellate>
          <altitudeMode>clampToGround</altitudeMode>
          <coordinates>
            -120.610830,34.632090,0
            -120.611101,34.632204,0
            -120.611372,34.632318,0
            -120.611644,34.632431,0
            -120.611915,34.632545,0
            -120.612186,34.632659,0
            -120.612457,34.632773,0
            -120.612729,34.632886,0
            -120.613000,34.633000,0
          </coordinates>
        </LineString>
      </Placemark>
    </Folder>
    <Folder>
      <name>猎鹰9 · SLC-4E · 海上回收</name>
      <Placemark>
        <name>发射 · SLC-4E</name>
        <styleUrl>#pin-start</styleUrl>
        <Point><coordinates>-120.610830,34.632090,0</coordinates></Point>
      </Placemark>
      <Placemark>
        <name>回收 · OCISLY 示意（南约600km）</name>
        <styleUrl>#pin-end</styleUrl>
        <Point><coordinates>-120.610000,29.240000,0</coordinates></Point>
      </Placemark>
      <Placemark>
        <name>航迹</name>
        <Style>
          <LineStyle><color>ffffc14a</color><width>4</width></LineStyle>
        </Style>
        <LineString>
          <tessellate>1</tessellate>
          <altitudeMode>clampToGround</altitudeMode>
          <coordinates>
            -120.610830,34.632090,0
            -120.610803,34.463587,0
            -120.610775,34.295084,0
            -120.610748,34.126582,0
            -120.610721,33.958079,0
            -120.610694,33.789576,0
            -120.610667,33.621073,0
            -120.610640,33.452570,0
            -120.610613,33.284068,0
            -120.610586,33.115565,0
            -120.610560,32.947062,0
            -120.610534,32.778559,0
            -120.610507,32.610056,0
            -120.610481,32.441553,0
            -120.610455,32.273051,0
            -120.610429,32.104548,0
            -120.610403,31.936045,0
            -120.610377,31.767542,0
            -120.610351,31.599039,0
            -120.610326,31.430537,0
            -120.610300,31.262034,0
            -120.610275,31.093531,0
            -120.610249,30.925028,0
            -120.610224,30.756525,0
            -120.610199,30.588023,0
            -120.610173,30.419520,0
            -120.610148,30.251017,0
            -120.610123,30.082514,0
            -120.610099,29.914011,0
            -120.610074,29.745508,0
            -120.610049,29.577006,0
            -120.610025,29.408503,0
            -120.610000,29.240000,0
          </coordinates>
        </LineString>
      </Placemark>
    </Folder>
    <Folder>
      <name>猎鹰重型 · LC-39A · 海上回收</name>
      <Placemark>
        <name>发射 · LC-39A</name>
        <styleUrl>#pin-start</styleUrl>
        <Point><coordinates>-80.604330,28.608390,0</coordinates></Point>
      </Placemark>
      <Placemark>
        <name>回收 · ASOG 示意（中央芯）</name>
        <styleUrl>#pin-end</styleUrl>
        <Point><coordinates>-74.450000,28.560000,0</coordinates></Point>
      </Placemark>
      <Placemark>
        <name>航迹</name>
        <Style>
          <LineStyle><color>ff4ad2ff</color><width>4</width></LineStyle>
        </Style>
        <LineString>
          <tessellate>1</tessellate>
          <altitudeMode>clampToGround</altitudeMode>
          <coordinates>
            -80.604330,28.608390,0
            -80.411998,28.611086,0
            -80.219657,28.613511,0
            -80.027308,28.615664,0
            -79.834951,28.617546,0
            -79.642588,28.619156,0
            -79.450220,28.620494,0
            -79.257847,28.621561,0
            -79.065470,28.622357,0
            -78.873092,28.622881,0
            -78.680712,28.623133,0
            -78.488331,28.623113,0
            -78.295951,28.622822,0
            -78.103572,28.622259,0
            -77.911196,28.621425,0
            -77.718824,28.620319,0
            -77.526456,28.618942,0
            -77.334094,28.617293,0
            -77.141738,28.615372,0
            -76.949390,28.613180,0
            -76.757050,28.610717,0
            -76.564720,28.607982,0
            -76.372401,28.604975,0
            -76.180093,28.601698,0
            -75.987797,28.598149,0
            -75.795515,28.594329,0
            -75.603247,28.590238,0
            -75.410995,28.585875,0
            -75.218759,28.581242,0
            -75.026541,28.576338,0
            -74.834341,28.571163,0
            -74.642160,28.565717,0
            -74.450000,28.560000,0
          </coordinates>
        </LineString>
      </Placemark>
    </Folder>
    <Folder>
      <name>猎鹰重型 · LC-39A · 陆地回收（可选）</name>
      <Placemark>
        <name>发射 · LC-39A</name>
        <styleUrl>#pin-start</styleUrl>
        <Point><coordinates>-80.604330,28.608390,0</coordinates></Point>
      </Placemark>
      <Placemark>
        <name>回收 · LZ-1</name>
        <styleUrl>#pin-end</styleUrl>
        <Point><coordinates>-80.544440,28.485830,0</coordinates></Point>
      </Placemark>
      <Placemark>
        <name>LZ-2</name>
        <styleUrl>#pin-end</styleUrl>
        <Point><coordinates>-80.546700,28.487800,0</coordinates></Point>
      </Placemark>
      <Placemark>
        <name>航迹</name>
        <Style>
          <LineStyle><color>ff2d7dff</color><width>4</width></LineStyle>
        </Style>
        <LineString>
          <tessellate>1</tessellate>
          <altitudeMode>clampToGround</altitudeMode>
          <coordinates>
            -80.604330,28.608390,0
            -80.600583,28.600731,0
            -80.596836,28.593071,0
            -80.593090,28.585412,0
            -80.589344,28.577752,0
            -80.585599,28.570093,0
            -80.581855,28.562433,0
            -80.578111,28.554773,0
            -80.574368,28.547113,0
            -80.570625,28.539453,0
            -80.566882,28.531793,0
            -80.563141,28.524133,0
            -80.559399,28.516472,0
            -80.555659,28.508812,0
            -80.551919,28.501151,0
            -80.548179,28.493491,0
            -80.544440,28.485830,0
          </coordinates>
        </LineString>
      </Placemark>
    </Folder>
  </Document>
</kml>
