<?xml version="1.0" encoding="UTF-8"?>
<kml xmlns="http://www.opengis.net/kml/2.2">
  <Document>
    <name>环绕全景 · 朱雀三号 / 长十二甲 / 长十乙</name>
    <description>3 条片：朱雀三号酒泉→民勤、长十二甲酒泉商火→民勤、长十乙海南商发2号→领航者号。导入 Earth Studio：Overlays → Import KML。做单条片时请用对应编号文件。</description>
    <Style id="pin-start">
      <IconStyle>
        <color>ff34c759</color>
        <scale>1.05</scale>
        <Icon><href>http://maps.google.com/mapfiles/kml/paddle/grn-circle.png</href></Icon>
      </IconStyle>
    </Style>
    <Style id="pin-end">
      <IconStyle>
        <scale>1.05</scale>
        <Icon><href>http://maps.google.com/mapfiles/kml/paddle/wht-circle.png</href></Icon>
      </IconStyle>
    </Style>
    <Folder>
      <name>朱雀三号 · 酒泉 LC-96B · 民勤航区回收</name>
      <Placemark>
        <name>发射 · 酒泉 LC-96B</name>
        <styleUrl>#pin-start</styleUrl>
        <Point><coordinates>100.251290,40.920170,0</coordinates></Point>
      </Placemark>
      <Placemark>
        <name>回收 · 民勤回收场</name>
        <styleUrl>#pin-end</styleUrl>
        <Point><coordinates>103.481000,38.445000,0</coordinates></Point>
      </Placemark>
      <Placemark>
        <name>航迹</name>
        <Style>
          <LineStyle><color>ff7a4dff</color><width>4</width></LineStyle>
        </Style>
        <LineString>
          <tessellate>1</tessellate>
          <altitudeMode>clampToGround</altitudeMode>
          <coordinates>
            100.251290,40.920170,0
            100.355793,40.844209,0
            100.460056,40.768155,0
            100.564080,40.692006,0
            100.667867,40.615765,0
            100.771417,40.539430,0
            100.874732,40.463004,0
            100.977811,40.386486,0
            101.080656,40.309876,0
            101.183268,40.233176,0
            101.285648,40.156385,0
            101.387797,40.079504,0
            101.489714,40.002534,0
            101.591403,39.925474,0
            101.692862,39.848326,0
            101.794093,39.771090,0
            101.895098,39.693766,0
            101.995876,39.616355,0
            102.096429,39.538857,0
            102.196758,39.461272,0
            102.296863,39.383602,0
            102.396745,39.305846,0
            102.496405,39.228004,0
            102.595845,39.150078,0
            102.695065,39.072068,0
            102.794065,38.993974,0
            102.892847,38.915796,0
            102.991411,38.837535,0
            103.089759,38.759192,0
            103.187891,38.680766,0
            103.285808,38.602259,0
            103.383510,38.523670,0
            103.481000,38.445000,0
          </coordinates>
        </LineString>
      </Placemark>
    </Folder>
    <Folder>
      <name>长征十二号甲 · 酒泉商火工位 · 民勤航区回收</name>
      <Placemark>
        <name>发射 · 酒泉商火工位</name>
        <styleUrl>#pin-start</styleUrl>
        <Point><coordinates>100.217289,40.891596,0</coordinates></Point>
      </Placemark>
      <Placemark>
        <name>回收 · 民勤回收场</name>
        <styleUrl>#pin-end</styleUrl>
        <Point><coordinates>101.923000,39.044000,0</coordinates></Point>
      </Placemark>
      <Placemark>
        <name>航迹</name>
        <Style>
          <LineStyle><color>ff5ac8fa</color><width>4</width></LineStyle>
        </Style>
        <LineString>
          <tessellate>1</tessellate>
          <altitudeMode>clampToGround</altitudeMode>
          <coordinates>
            100.217289,40.891596,0
            100.272012,40.834244,0
            100.326640,40.776866,0
            100.381174,40.719463,0
            100.435613,40.662034,0
            100.489960,40.604580,0
            100.544212,40.547100,0
            100.598372,40.489594,0
            100.652439,40.432064,0
            100.706413,40.374508,0
            100.760296,40.316928,0
            100.814086,40.259322,0
            100.867785,40.201691,0
            100.921393,40.144036,0
            100.974910,40.086356,0
            101.028336,40.028652,0
            101.081672,39.970922,0
            101.134917,39.913169,0
            101.188073,39.855391,0
            101.241140,39.797589,0
            101.294117,39.739763,0
            101.347006,39.681913,0
            101.399806,39.624039,0
            101.452518,39.566141,0
            101.505142,39.508219,0
            101.557678,39.450274,0
            101.610126,39.392305,0
            101.662488,39.334312,0
            101.714763,39.276296,0
            101.766951,39.218257,0
            101.819053,39.160194,0
            101.871070,39.102109,0
            101.923000,39.044000,0
          </coordinates>
        </LineString>
      </Placemark>
    </Folder>
    <Folder>
      <name>长征十号乙 · 海南商发 2 号 · 海上网系回收</name>
      <Placemark>
        <name>发射 · 海南商发 2 号工位</name>
        <styleUrl>#pin-start</styleUrl>
        <Point><coordinates>110.936481,19.597550,0</coordinates></Point>
      </Placemark>
      <Placemark>
        <name>回收 · 领航者号（首飞驻位）</name>
        <styleUrl>#pin-end</styleUrl>
        <Point><coordinates>113.528670,16.604170,0</coordinates></Point>
      </Placemark>
      <Placemark>
        <name>航迹</name>
        <Style>
          <LineStyle><color>ffff9f0a</color><width>4</width></LineStyle>
        </Style>
        <LineString>
          <tessellate>1</tessellate>
          <altitudeMode>clampToGround</altitudeMode>
          <coordinates>
            110.936481,19.597550,0
            111.018870,19.504549,0
            111.101164,19.411510,0
            111.183364,19.318435,0
            111.265470,19.225322,0
            111.347483,19.132173,0
            111.429404,19.038988,0
            111.511233,18.945767,0
            111.592970,18.852510,0
            111.674617,18.759217,0
            111.756173,18.665889,0
            111.837640,18.572526,0
            111.919017,18.479127,0
            112.000306,18.385694,0
            112.081507,18.292227,0
            112.162620,18.198725,0
            112.243647,18.105190,0
            112.324586,18.011620,0
            112.405440,17.918017,0
            112.486209,17.824381,0
            112.566892,17.730711,0
            112.647491,17.637008,0
            112.728007,17.543273,0
            112.808439,17.449506,0
            112.888789,17.355706,0
            112.969056,17.261874,0
            113.049242,17.168010,0
            113.129346,17.074114,0
            113.209370,16.980187,0
            113.289314,16.886229,0
            113.369178,16.792240,0
            113.448963,16.698220,0
            113.528670,16.604170,0
          </coordinates>
        </LineString>
      </Placemark>
    </Folder>
  </Document>
</kml>
