<?xml version="1.0" encoding="UTF-8"?>
<kml xmlns="http://www.opengis.net/kml/2.2">
  <Document>
    <name>猎鹰9 · SLC-40 · 海上回收</name>
    <description>后台锁定：Falcon 9 · SLC-40 · 海上回收。搜索请用「纬度, 经度」。海上终点为常规 600km 示意驻位，不是某次任务精确落点。</description>
    <Style id="line">
      <LineStyle>
        <color>ffffc14a</color>
        <width>4</width>
      </LineStyle>
    </Style>
    <Style id="pin-start">
      <IconStyle>
        <color>ff34c759</color>
        <scale>1.1</scale>
        <Icon><href>http://maps.google.com/mapfiles/kml/paddle/grn-circle.png</href></Icon>
      </IconStyle>
      <LabelStyle><scale>1</scale></LabelStyle>
    </Style>
    <Style id="pin-end">
      <IconStyle>
        <color>ffffc14a</color>
        <scale>1.1</scale>
        <Icon><href>http://maps.google.com/mapfiles/kml/paddle/wht-circle.png</href></Icon>
      </IconStyle>
      <LabelStyle><scale>1</scale></LabelStyle>
    </Style>
      <LookAt>
        <longitude>-77.513685</longitude>
        <latitude>28.560930</latitude>
        <altitude>0</altitude>
        <heading>0</heading>
        <tilt>45</tilt>
        <range>1316382</range>
        <altitudeMode>relativeToGround</altitudeMode>
      </LookAt>
    <Placemark id="start">
      <name>发射 · SLC-40</name>
      <styleUrl>#pin-start</styleUrl>
      <Point>
        <coordinates>-80.577370,28.561860,0</coordinates>
      </Point>
    </Placemark>
    <Placemark id="end">
      <name>回收 · ASOG 示意（东约600km）</name>
      <styleUrl>#pin-end</styleUrl>
      <Point>
        <coordinates>-74.450000,28.560000,0</coordinates>
      </Point>
    </Placemark>

    <Placemark id="route">
      <name>猎鹰9 · SLC-40 · 海上回收 · 航迹</name>
      <styleUrl>#line</styleUrl>
      <LineString>
        <tessellate>1</tessellate>
        <altitudeMode>clampToGround</altitudeMode>
        <coordinates>
          -80.577370,28.561860,0
          -80.385962,28.565969,0
          -80.194540,28.569810,0
          -80.003104,28.573382,0
          -79.811656,28.576686,0
          -79.620197,28.579720,0
          -79.428726,28.582486,0
          -79.237246,28.584983,0
          -79.045758,28.587212,0
          -78.854262,28.589171,0
          -78.662759,28.590861,0
          -78.471251,28.592283,0
          -78.279738,28.593435,0
          -78.088221,28.594319,0
          -77.896701,28.594933,0
          -77.705180,28.595278,0
          -77.513658,28.595355,0
          -77.322136,28.595162,0
          -77.130615,28.594700,0
          -76.939097,28.593970,0
          -76.747582,28.592970,0
          -76.556070,28.591701,0
          -76.364564,28.590163,0
          -76.173064,28.588357,0
          -75.981571,28.586281,0
          -75.790087,28.583937,0
          -75.598611,28.581323,0
          -75.407145,28.578441,0
          -75.215690,28.575290,0
          -75.024247,28.571871,0
          -74.832817,28.568182,0
          -74.641401,28.564225,0
          -74.450000,28.560000,0
        </coordinates>
      </LineString>
    </Placemark>
  </Document>
</kml>
