<?xml version="1.0" encoding="UTF-8"?>
<kml xmlns="http://www.opengis.net/kml/2.2">
  <Document>
    <name>猎鹰9 · LC-39A · 陆地回收</name>
    <description>后台锁定：Falcon 9 · LC-39A · 陆地回收。搜索请用「纬度, 经度」。海上终点为常规 600km 示意驻位，不是某次任务精确落点。</description>
    <Style id="line">
      <LineStyle>
        <color>ff2d7dff</color>
        <width>4</width>
      </LineStyle>
    </Style>
    <Style id="pin-start">
      <IconStyle>
        <color>ff34c759</color>
        <scale>1.1</scale>
        <Icon><href>http://maps.google.com/mapfiles/kml/paddle/grn-circle.png</href></Icon>
      </IconStyle>
      <LabelStyle><scale>1</scale></LabelStyle>
    </Style>
    <Style id="pin-end">
      <IconStyle>
        <color>ff2d7dff</color>
        <scale>1.1</scale>
        <Icon><href>http://maps.google.com/mapfiles/kml/paddle/wht-circle.png</href></Icon>
      </IconStyle>
      <LabelStyle><scale>1</scale></LabelStyle>
    </Style>
      <LookAt>
        <longitude>-80.590765</longitude>
        <latitude>28.585145</latitude>
        <altitude>0</altitude>
        <heading>0</heading>
        <tilt>45</tilt>
        <range>12779</range>
        <altitudeMode>relativeToGround</altitudeMode>
      </LookAt>
    <Placemark id="start">
      <name>发射 · LC-39A</name>
      <styleUrl>#pin-start</styleUrl>
      <Point>
        <coordinates>-80.604330,28.608390,0</coordinates>
      </Point>
    </Placemark>
    <Placemark id="end">
      <name>回收 · LZ-40</name>
      <styleUrl>#pin-end</styleUrl>
      <Point>
        <coordinates>-80.577200,28.561900,0</coordinates>
      </Point>
    </Placemark>

    <Placemark id="route">
      <name>猎鹰9 · LC-39A · 陆地回收 · 航迹</name>
      <styleUrl>#line</styleUrl>
      <LineString>
        <tessellate>1</tessellate>
        <altitudeMode>clampToGround</altitudeMode>
        <coordinates>
          -80.604330,28.608390,0
          -80.602634,28.605485,0
          -80.600937,28.602579,0
          -80.599241,28.599674,0
          -80.597545,28.596768,0
          -80.595849,28.593862,0
          -80.594153,28.590957,0
          -80.592458,28.588051,0
          -80.590762,28.585146,0
          -80.589066,28.582240,0
          -80.587371,28.579334,0
          -80.585676,28.576429,0
          -80.583980,28.573523,0
          -80.582285,28.570617,0
          -80.580590,28.567712,0
          -80.578895,28.564806,0
          -80.577200,28.561900,0
        </coordinates>
      </LineString>
    </Placemark>
  </Document>
</kml>
