<?xml version="1.0" encoding="UTF-8"?>
<kml xmlns="http://www.opengis.net/kml/2.2">
  <Document>
    <name>猎鹰9 · SLC-4E · 陆地回收</name>
    <description>后台锁定：Falcon 9 · SLC-4E · 陆地回收。搜索请用「纬度, 经度」。海上终点为常规 600km 示意驻位，不是某次任务精确落点。</description>
    <Style id="line">
      <LineStyle>
        <color>ff2d7dff</color>
        <width>6</width>
      </LineStyle>
    </Style>
    <Style id="pin-start">
      <IconStyle>
        <color>ff34c759</color>
        <scale>1.1</scale>
        <Icon><href>http://maps.google.com/mapfiles/kml/paddle/grn-circle.png</href></Icon>
      </IconStyle>
      <LabelStyle><scale>1</scale></LabelStyle>
    </Style>
    <Style id="pin-end">
      <IconStyle>
        <color>ff2d7dff</color>
        <scale>1.1</scale>
        <Icon><href>http://maps.google.com/mapfiles/kml/paddle/wht-circle.png</href></Icon>
      </IconStyle>
      <LabelStyle><scale>1</scale></LabelStyle>
    </Style>
      <LookAt>
        <longitude>-120.611915</longitude>
        <latitude>34.632545</latitude>
        <altitude>0</altitude>
        <heading>0</heading>
        <tilt>45</tilt>
        <range>8000</range>
        <altitudeMode>relativeToGround</altitudeMode>
      </LookAt>
    <Placemark id="start">
      <name>发射 · SLC-4E</name>
      <styleUrl>#pin-start</styleUrl>
      <Point>
        <coordinates>-120.610830,34.632090,0</coordinates>
      </Point>
    </Placemark>
    <Placemark id="end">
      <name>回收 · LZ-4</name>
      <styleUrl>#pin-end</styleUrl>
      <Point>
        <coordinates>-120.613000,34.633000,0</coordinates>
      </Point>
    </Placemark>

    <Placemark id="route">
      <name>猎鹰9 · SLC-4E · 陆地回收 · 航迹</name>
      <styleUrl>#line</styleUrl>
      <LineString>
        <tessellate>1</tessellate>
        <altitudeMode>clampToGround</altitudeMode>
        <coordinates>
          -120.610830,34.632090,0
          -120.611101,34.632204,0
          -120.611372,34.632318,0
          -120.611644,34.632431,0
          -120.611915,34.632545,0
          -120.612186,34.632659,0
          -120.612457,34.632773,0
          -120.612729,34.632886,0
          -120.613000,34.633000,0
        </coordinates>
      </LineString>
    </Placemark>
  </Document>
</kml>
