<?xml version="1.0" encoding="UTF-8"?>
<kml xmlns="http://www.opengis.net/kml/2.2">
  <Document>
    <name>猎鹰9 · SLC-4E · 海上回收</name>
    <description>后台锁定：Falcon 9 · SLC-4E · 海上回收。搜索请用「纬度, 经度」。海上终点为常规 600km 示意驻位，不是某次任务精确落点。</description>
    <Style id="line">
      <LineStyle>
        <color>ffffc14a</color>
        <width>4</width>
      </LineStyle>
    </Style>
    <Style id="pin-start">
      <IconStyle>
        <color>ff34c759</color>
        <scale>1.1</scale>
        <Icon><href>http://maps.google.com/mapfiles/kml/paddle/grn-circle.png</href></Icon>
      </IconStyle>
      <LabelStyle><scale>1</scale></LabelStyle>
    </Style>
    <Style id="pin-end">
      <IconStyle>
        <color>ffffc14a</color>
        <scale>1.1</scale>
        <Icon><href>http://maps.google.com/mapfiles/kml/paddle/wht-circle.png</href></Icon>
      </IconStyle>
      <LabelStyle><scale>1</scale></LabelStyle>
    </Style>
      <LookAt>
        <longitude>-120.610415</longitude>
        <latitude>31.936045</latitude>
        <altitude>0</altitude>
        <heading>0</heading>
        <tilt>45</tilt>
        <range>1319061</range>
        <altitudeMode>relativeToGround</altitudeMode>
      </LookAt>
    <Placemark id="start">
      <name>发射 · SLC-4E</name>
      <styleUrl>#pin-start</styleUrl>
      <Point>
        <coordinates>-120.610830,34.632090,0</coordinates>
      </Point>
    </Placemark>
    <Placemark id="end">
      <name>回收 · OCISLY 示意（南约600km）</name>
      <styleUrl>#pin-end</styleUrl>
      <Point>
        <coordinates>-120.610000,29.240000,0</coordinates>
      </Point>
    </Placemark>

    <Placemark id="route">
      <name>猎鹰9 · SLC-4E · 海上回收 · 航迹</name>
      <styleUrl>#line</styleUrl>
      <LineString>
        <tessellate>1</tessellate>
        <altitudeMode>clampToGround</altitudeMode>
        <coordinates>
          -120.610830,34.632090,0
          -120.610803,34.463587,0
          -120.610775,34.295084,0
          -120.610748,34.126582,0
          -120.610721,33.958079,0
          -120.610694,33.789576,0
          -120.610667,33.621073,0
          -120.610640,33.452570,0
          -120.610613,33.284068,0
          -120.610586,33.115565,0
          -120.610560,32.947062,0
          -120.610534,32.778559,0
          -120.610507,32.610056,0
          -120.610481,32.441553,0
          -120.610455,32.273051,0
          -120.610429,32.104548,0
          -120.610403,31.936045,0
          -120.610377,31.767542,0
          -120.610351,31.599039,0
          -120.610326,31.430537,0
          -120.610300,31.262034,0
          -120.610275,31.093531,0
          -120.610249,30.925028,0
          -120.610224,30.756525,0
          -120.610199,30.588023,0
          -120.610173,30.419520,0
          -120.610148,30.251017,0
          -120.610123,30.082514,0
          -120.610099,29.914011,0
          -120.610074,29.745508,0
          -120.610049,29.577006,0
          -120.610025,29.408503,0
          -120.610000,29.240000,0
        </coordinates>
      </LineString>
    </Placemark>
  </Document>
</kml>
