<?xml version="1.0" encoding="UTF-8"?>
<kml xmlns="http://www.opengis.net/kml/2.2">
  <Document>
    <name>猎鹰重型 · LC-39A · 海上回收</name>
    <description>后台锁定：Falcon Heavy · LC-39A · 海上回收。搜索请用「纬度, 经度」。海上终点为常规 600km 示意驻位，不是某次任务精确落点。</description>
    <Style id="line">
      <LineStyle>
        <color>ff4ad2ff</color>
        <width>4</width>
      </LineStyle>
    </Style>
    <Style id="pin-start">
      <IconStyle>
        <color>ff34c759</color>
        <scale>1.1</scale>
        <Icon><href>http://maps.google.com/mapfiles/kml/paddle/grn-circle.png</href></Icon>
      </IconStyle>
      <LabelStyle><scale>1</scale></LabelStyle>
    </Style>
    <Style id="pin-end">
      <IconStyle>
        <color>ff4ad2ff</color>
        <scale>1.1</scale>
        <Icon><href>http://maps.google.com/mapfiles/kml/paddle/wht-circle.png</href></Icon>
      </IconStyle>
      <LabelStyle><scale>1</scale></LabelStyle>
    </Style>
      <LookAt>
        <longitude>-77.527165</longitude>
        <latitude>28.584195</latitude>
        <altitude>0</altitude>
        <heading>0</heading>
        <tilt>45</tilt>
        <range>1321933</range>
        <altitudeMode>relativeToGround</altitudeMode>
      </LookAt>
    <Placemark id="start">
      <name>发射 · LC-39A</name>
      <styleUrl>#pin-start</styleUrl>
      <Point>
        <coordinates>-80.604330,28.608390,0</coordinates>
      </Point>
    </Placemark>
    <Placemark id="end">
      <name>回收 · ASOG 示意（中央芯）</name>
      <styleUrl>#pin-end</styleUrl>
      <Point>
        <coordinates>-74.450000,28.560000,0</coordinates>
      </Point>
    </Placemark>

    <Placemark id="route">
      <name>猎鹰重型 · LC-39A · 海上回收 · 航迹</name>
      <styleUrl>#line</styleUrl>
      <LineString>
        <tessellate>1</tessellate>
        <altitudeMode>clampToGround</altitudeMode>
        <coordinates>
          -80.604330,28.608390,0
          -80.411998,28.611086,0
          -80.219657,28.613511,0
          -80.027308,28.615664,0
          -79.834951,28.617546,0
          -79.642588,28.619156,0
          -79.450220,28.620494,0
          -79.257847,28.621561,0
          -79.065470,28.622357,0
          -78.873092,28.622881,0
          -78.680712,28.623133,0
          -78.488331,28.623113,0
          -78.295951,28.622822,0
          -78.103572,28.622259,0
          -77.911196,28.621425,0
          -77.718824,28.620319,0
          -77.526456,28.618942,0
          -77.334094,28.617293,0
          -77.141738,28.615372,0
          -76.949390,28.613180,0
          -76.757050,28.610717,0
          -76.564720,28.607982,0
          -76.372401,28.604975,0
          -76.180093,28.601698,0
          -75.987797,28.598149,0
          -75.795515,28.594329,0
          -75.603247,28.590238,0
          -75.410995,28.585875,0
          -75.218759,28.581242,0
          -75.026541,28.576338,0
          -74.834341,28.571163,0
          -74.642160,28.565717,0
          -74.450000,28.560000,0
        </coordinates>
      </LineString>
    </Placemark>
  </Document>
</kml>
