<?xml version="1.0" encoding="UTF-8"?>
<kml xmlns="http://www.opengis.net/kml/2.2">
  <Document>
    <name>猎鹰重型 · LC-39A · 陆地回收（可选）</name>
    <description>后台锁定：Falcon Heavy · LC-39A · 陆地回收。搜索请用「纬度, 经度」。海上终点为常规 600km 示意驻位，不是某次任务精确落点。</description>
    <Style id="line">
      <LineStyle>
        <color>ff2d7dff</color>
        <width>4</width>
      </LineStyle>
    </Style>
    <Style id="pin-start">
      <IconStyle>
        <color>ff34c759</color>
        <scale>1.1</scale>
        <Icon><href>http://maps.google.com/mapfiles/kml/paddle/grn-circle.png</href></Icon>
      </IconStyle>
      <LabelStyle><scale>1</scale></LabelStyle>
    </Style>
    <Style id="pin-end">
      <IconStyle>
        <color>ff2d7dff</color>
        <scale>1.1</scale>
        <Icon><href>http://maps.google.com/mapfiles/kml/paddle/wht-circle.png</href></Icon>
      </IconStyle>
      <LabelStyle><scale>1</scale></LabelStyle>
    </Style>
      <LookAt>
        <longitude>-80.574385</longitude>
        <latitude>28.547110</latitude>
        <altitude>0</altitude>
        <heading>0</heading>
        <tilt>45</tilt>
        <range>32627</range>
        <altitudeMode>relativeToGround</altitudeMode>
      </LookAt>
    <Placemark id="start">
      <name>发射 · LC-39A</name>
      <styleUrl>#pin-start</styleUrl>
      <Point>
        <coordinates>-80.604330,28.608390,0</coordinates>
      </Point>
    </Placemark>
    <Placemark id="end">
      <name>回收 · LZ-1</name>
      <styleUrl>#pin-end</styleUrl>
      <Point>
        <coordinates>-80.544440,28.485830,0</coordinates>
      </Point>
    </Placemark>

    <Placemark id="extra">
      <name>LZ-2</name>
      <styleUrl>#pin-end</styleUrl>
      <Point>
        <coordinates>-80.546700,28.487800,0</coordinates>
      </Point>
    </Placemark>
    <Placemark id="route">
      <name>猎鹰重型 · LC-39A · 陆地回收（可选） · 航迹</name>
      <styleUrl>#line</styleUrl>
      <LineString>
        <tessellate>1</tessellate>
        <altitudeMode>clampToGround</altitudeMode>
        <coordinates>
          -80.604330,28.608390,0
          -80.600583,28.600731,0
          -80.596836,28.593071,0
          -80.593090,28.585412,0
          -80.589344,28.577752,0
          -80.585599,28.570093,0
          -80.581855,28.562433,0
          -80.578111,28.554773,0
          -80.574368,28.547113,0
          -80.570625,28.539453,0
          -80.566882,28.531793,0
          -80.563141,28.524133,0
          -80.559399,28.516472,0
          -80.555659,28.508812,0
          -80.551919,28.501151,0
          -80.548179,28.493491,0
          -80.544440,28.485830,0
        </coordinates>
      </LineString>
    </Placemark>
  </Document>
</kml>
